{
    "links": {
        "self": "http://www.neowsapp.com/rest/v1/neo/3781888?api_key=iIulBulltgU6a56xZRHN4H3l9WmuAYTsLGpBGhQ2"
    },
    "id": "3781888",
    "neo_reference_id": "3781888",
    "name": "(2017 SJ16)",
    "designation": "2017 SJ16",
    "nasa_jpl_url": "http://ssd.jpl.nasa.gov/sbdb.cgi?sstr=3781888",
    "absolute_magnitude_h": 26.0,
    "estimated_diameter": {
        "kilometers": {
            "estimated_diameter_min": 0.0167708462,
            "estimated_diameter_max": 0.0375007522
        },
        "meters": {
            "estimated_diameter_min": 16.7708462163,
            "estimated_diameter_max": 37.5007521798
        },
        "miles": {
            "estimated_diameter_min": 0.0104209175,
            "estimated_diameter_max": 0.0233018799
        },
        "feet": {
            "estimated_diameter_min": 55.0224631002,
            "estimated_diameter_max": 123.0339677816
        }
    },
    "is_potentially_hazardous_asteroid": false,
    "close_approach_data": [
        {
            "close_approach_date": "2017-09-22",
            "close_approach_date_full": "2017-Sep-22 13:50",
            "epoch_date_close_approach": 1506088200000,
            "relative_velocity": {
                "kilometers_per_second": "7.8073855968",
                "kilometers_per_hour": "28106.5881484499",
                "miles_per_hour": "17464.3408414632"
            },
            "miss_distance": {
                "astronomical": "0.0299404251",
                "lunar": "11.6468253639",
                "kilometers": "4479023.821854537",
                "miles": "2783136.3471531306"
            },
            "orbiting_body": "Earth"
        }
    ],
    "orbital_data": {
        "orbit_id": "2",
        "orbit_determination_date": "2019-07-17 06:12:11",
        "first_observation_date": "2017-09-24",
        "last_observation_date": "2017-09-30",
        "data_arc_in_days": 6,
        "observations_used": 27,
        "orbit_uncertainty": "8",
        "minimum_orbit_intersection": ".0263121",
        "jupiter_tisserand_invariant": "3.476",
        "epoch_osculation": "2458025.5",
        "eccentricity": ".5285564194296952",
        "semi_major_axis": "2.181777426277314",
        "inclination": "7.200310556367471",
        "ascending_node_longitude": "184.453029664951",
        "orbital_period": "1177.101987241351",
        "perihelion_distance": "1.028584961851641",
        "perihelion_argument": "180.458562485396",
        "aphelion_distance": "3.334969890702987",
        "perihelion_time": "2458023.218308292111",
        "mean_anomaly": ".6978231484980238",
        "mean_motion": ".3058358612100332",
        "equinox": "J2000",
        "orbit_class": {
            "orbit_class_type": "AMO",
            "orbit_class_description": "Near-Earth asteroid orbits similar to that of 1221 Amor",
            "orbit_class_range": "1.017 AU < q (perihelion) < 1.3 AU"
        }
    },
    "is_sentry_object": false
}